[{"OBJECT_NAME":"LEMUR-2-DEMBITZ","OBJECT_ID":"2017-042T","EPOCH":"2026-03-09T11:23:53.232288","MEAN_MOTION":15.26947128,"ECCENTRICITY":0.00069617,"INCLINATION":97.3807,"RA_OF_ASC_NODE":250.9241,"ARG_OF_PERICENTER":17.1421,"MEAN_ANOMALY":343.0051,"EPHEMERIS_TYPE":0,"CLASSIFICATION_TYPE":"U","NORAD_CAT_ID":42842,"ELEMENT_SET_NO":999,"REV_AT_EPOCH":47311,"BSTAR":0.00076560825,"MEAN_MOTION_DOT":0.00020231,"MEAN_MOTION_DDOT":0},{"OBJECT_NAME":"STARLINK-32625","OBJECT_ID":"2024-224R","EPOCH":"2026-03-09T06:40:55.950240","MEAN_MOTION":15.27602483,"ECCENTRICITY":0.00011143,"INCLINATION":42.9968,"RA_OF_ASC_NODE":160.7214,"ARG_OF_PERICENTER":290.1455,"MEAN_ANOMALY":69.9277,"EPHEMERIS_TYPE":0,"CLASSIFICATION_TYPE":"U","NORAD_CAT_ID":62154,"ELEMENT_SET_NO":999,"REV_AT_EPOCH":7230,"BSTAR":0.0013230736,"MEAN_MOTION_DOT":0.00036351,"MEAN_MOTION_DDOT":0}]
